FLOCK 3P-15             
1 42039U 17008CV  18001.60386287  .00002806  00000-0  11970-3 0  9991
2 42039  97.4726  67.3806 0006537 232.1101 127.9546 15.23740787 47915
FLOCK 3P-13             
1 42040U 17008CW  18001.59735896  .00001296  00000-0  56990-4 0  9999
2 42040  97.4729  67.3980 0006397 234.0304 126.0340 15.23684292 47902
FLOCK 3P-55             
1 42041U 17008CX  18001.44490955  .00002876  00000-0  12276-3 0  9991
2 42041  97.4730  67.2902 0006128 238.5971 121.4667 15.23711234 48728
FLOCK 3P-56             
1 42042U 17008CY  18001.60705303  .00002945  00000-0  12363-3 0  9990
2 42042  97.4725  67.5180 0006082 236.3760 123.6897 15.24251612 48544
FLOCK 3P-81             
1 42043U 17008CZ  18001.42462031  .00001477  00000-0  64256-4 0  9997
2 42043  97.4750  67.2761 0007386 214.3589 145.7171 15.23832987 47894
FLOCK 3P-87             
1 42044U 17008DA  18001.36972679  .00001736  00000-0  75179-4 0  9999
2 42044  97.4746  67.1798 0007623 211.6605 148.4174 15.23745397 48030
FLOCK 3P-29             
1 42045U 17008DB  18001.83119410  .00002873  00000-0  12241-3 0  9991
2 42045  97.4731  67.5591 0007467 205.9027 154.1837 15.23765173 47954
FLOCK 3P-82             
1 42046U 17008DC  18001.43161055  .00002813  00000-0  11931-3 0  9999
2 42046  97.4750  67.2586 0007621 212.2952 147.7820 15.23929919 47946
FLOCK 3P-78             
1 42047U 17008DD  18001.82835970  .00001668  00000-0  72307-4 0  9999
2 42047  97.4748  67.6512 0007584 209.6626 150.4181 15.23774027 47931
FLOCK 3P-74             
1 42048U 17008DE  18001.37866997  .00001715  00000-0  74356-4 0  9992
2 42048  97.4752  67.1906 0007824 212.6761 147.3993 15.23720816 47865
FLOCK 3P-31             
1 42049U 17008DF  18001.38031150  .00001347  00000-0  59009-4 0  9998
2 42049  97.4729  67.0914 0007465 209.2857 150.7962 15.23742978 47325
FLOCK 3P-83             
1 42050U 17008DG  18001.84099864  .00002638  00000-0  11276-3 0  9994
2 42050  97.4749  67.6307 0007712 211.6715 148.4059 15.23721371 48669
FLOCK 3P-72             
1 42051U 17008DH  18001.82101559  .00000838  00000-0  37990-4 0  9990
2 42051  97.4755  67.6787 0007359 210.0472 150.0343 15.23620527 46258
LEMUR-2-REDFERN-GOES    
1 42059U 98067LA  18001.75191850  .00026168  00000-0  24781-3 0  9994
2 42059  51.6367 115.2252 0006108 317.1037  42.9482 15.66745907 47049
LEMUR-2-TRUTNA          
1 42067U 98067LC  18001.81894531  .00079745  00000-0  45205-3 0  9999
2 42067  51.6414 105.8647 0005011 318.8009  41.2613 15.78335329 47003
LEMUR-2-AUSTINTACIOUS   
1 42068U 98067LD  18001.52872262  .00023859  00000-0  20790-3 0  9992
2 42068  51.6371 114.4825 0005739 307.1872  52.8601 15.68862558 46963
LEMUR-2-TRUTNAHD        
1 42069U 98067LE  18001.81741556  .00027148  00000-0  24898-3 0  9994
2 42069  51.6376 114.1856 0005483 315.4770  44.5785 15.67523761 47045
HAVELSAT                
1 42700U 98067LH  18001.76689016  .00020726  00000-0  22410-3 0  9995
2 42700  51.6380 120.5986 0004739 342.2944  17.7885 15.63559990 35927
SOMP 2                  
1 42701U 98067LJ  18001.74513734  .00020385  00000-0  22502-3 0  9990
2 42701  51.6377 121.2037 0004745 341.9871  18.0954 15.63039501 35901
COLUMBIA                
1 42702U 98067LK  18001.75545093  .00119433  00000-0  63331-3 0  9993
2 42702  51.6318 112.1861 0005870 324.6801  35.3811 15.79642861 35957
SGSAT                   
1 42703U 98067LL  18001.80196982  .00065290  00000-0  48704-3 0  9997
2 42703  51.6342 115.5263 0003173 286.0307  74.0342 15.72116605 35903
CXBN-2                  
1 42704U 98067LM  18001.68273161  .00020666  00000-0  22702-3 0  9997
2 42704  51.6384 121.5420 0001886 276.3746  83.7034 15.63162459 35824
ICECUBE                 
1 42705U 98067LN  18001.79937412  .00033300  00000-0  32624-3 0  9999
2 42705  51.6414 119.3547 0002311 286.6557  73.4185 15.65779296 35921
PHOENIX                 
1 42706U 98067LP  18001.73198220  .00020127  00000-0  22280-3 0  9990
2 42706  51.6379 121.1187 0001036 293.7036  66.3850 15.62984205 35821
X-CUBESAT               
1 42707U 98067LQ  18001.77612123  .00022098  00000-0  23823-3 0  9991
2 42707  51.6360 120.6430 0001290 292.8930  67.1928 15.63598020 35824
QBEE50-LTU-OC           
1 42708U 98067LR  18001.85595053  .00021885  00000-0  23876-3 0  9994
2 42708  51.6375 120.4326 0001280 295.1697  64.9164 15.63298744 35791
ALTAIR PATHFINDER       
1 42711U 98067LS  18001.80872825  .00013358  00000-0  16657-3 0  9993
2 42711  51.6377 123.1233 0003765 276.4097  83.6467 15.60230870 35461
SHARC                   
1 42712U 98067LT  18001.78452978  .00010127  00000-0  13199-3 0  9993
2 42712  51.6392 123.7340 0001962 283.4622  76.6152 15.59379439 35694
ZA-AEROSAT              
1 42713U 98067LU  18001.89269753  .00017581  00000-0  20359-3 0  9990
2 42713  51.6373 121.4375 0002178 266.4666  93.6079 15.61922292 35495
LINK                    
1 42714U 98067LV  18001.76234348  .00032358  00000-0  31666-3 0  9991
2 42714  51.6352 119.7906 0002580 272.2113  87.8587 15.65821552 35616
CSUNSAT 1               
1 42715U 98067LW  18001.88617592  .00019100  00000-0  21873-3 0  9990
2 42715  51.6382 121.3956 0004023 266.8624  93.1910 15.62141940 35493
UPSAT                   
1 42716U 98067LX  18001.83687152  .00027649  00000-0  28074-3 0  9992
2 42716  51.6373 119.5621 0003324 339.8351  20.2513 15.64978046 35647
SPACECUBE               
1 42717U 98067LY  18001.81086149  .00021973  00000-0  24068-3 0  9993
2 42717  51.6370 120.8869 0003296 342.3874  17.7005 15.63190863 34863
HOOPOE                  
1 42718U 98067LZ  18001.75879272  .00024968  00000-0  26292-3 0  9992
2 42718  51.6376 120.5410 0003318 338.9392  21.1466 15.64115758 34861
CHALLENGER              
1 42721U 98067MA  18001.88110842  .00038884  00000-0  35634-3 0  9993
2 42721  51.6359 118.3315 0005790 319.9736  40.0833 15.67350150 34602
NJUST-1                 
1 42722U 98067MB  18001.87487921  .00016916  00000-0  19992-3 0  9999
2 42722  51.6381 122.0685 0006066 326.7822  33.2790 15.61409887 34555
UNSW-ECO                
1 42723U 98067MC  18001.72977300  .00026456  00000-0  27793-3 0  9997
2 42723  51.6386 121.1049 0005716 322.1901  37.8692 15.64129074 34533
DUTHSAT                 
1 42724U 98067MD  18001.78900821  .00037862  00000-0  35553-3 0  9994
2 42724  51.6367 119.2330 0005004 321.0537  39.0098 15.66763635 34484
LILACSAT-1              
1 42725U 98067ME  18001.77133897  .00019741  00000-0  22381-3 0  9996
2 42725  51.6379 122.1290 0005095 326.5904  33.4768 15.62372409 34443
NSIGHT-1                
1 42726U 98067MF  18001.77504862  .00008567  00000-0  11505-3 0  9991
2 42726  51.6392 124.4161 0005538 333.7850  26.2861 15.58810895 34426
SNUSAT-1                
1 42727U 98067MG  18001.77398412  .00019345  00000-0  21985-3 0  9993
2 42727  51.6364 122.1241 0006832 289.2794  70.7461 15.62314476 34418
QBITO                   
1 42728U 98067MH  18001.84260656  .00021555  00000-0  23689-3 0  9999
2 42728  51.6395 121.1260 0002747 328.9345  31.1486 15.63120090 34277
AALTO-2                 
1 42729U 98067MJ  18001.83966720  .00022242  00000-0  24333-3 0  9995
2 42729  51.6379 121.0882 0002768 328.2216  31.8611 15.63215623 34287
SUSAT                   
1 42730U 98067MK  18001.80214167  .00020882  00000-0  23307-3 0  9993
2 42730  51.6375 121.5804 0002837 326.4655  33.6159 15.62744155 34269
I-INSPIRE II            
1 42731U 98067ML  18001.77257496  .00025171  00000-0  26171-3 0  9990
2 42731  51.6367 120.6126 0006236 275.8067  84.2217 15.64419569 34323
POLYITAN-2-SAU          
1 42732U 98067MM  18001.89048307  .00021789  00000-0  23658-3 0  9991
2 42732  51.6374 120.6566 0006294 275.2880  84.7396 15.63407808 34337
SNUSAT-1B               
1 42733U 98067MN  18001.86726912  .00021300  00000-0  23752-3 0  9998
2 42733  51.6375 121.2564 0006283 277.6683  82.3598 15.62737901 34325
EXALTA-1                
1 42734U 98067MP  18001.77830692  .00027934  00000-0  28945-3 0  9998
2 42734  51.6363 120.6523 0007352 300.0063  60.0202 15.64434214 34274
AOXIANG-1               
1 42735U 98067MQ  18001.79996741  .00017248  00000-0  20250-3 0  9997
2 42735  51.6373 122.3095 0006584 323.3967  36.6576 15.61563341 35675
BEEAGLESAT              
1 42736U 98067MR  18001.77088161  .00019112  00000-0  21866-3 0  9990
2 42736  51.6373 122.1140 0006460 321.3076  38.7455 15.62153963 34367
ATLANTIS                
1 42737U 98067MS  18001.59210569  .00085032  00000-0  54439-3 0  9996
2 42737  51.6312 115.5970 0006741 311.9316  48.1109 15.75546289 34320
LEMUR-2-ANGELA          
1 42752U 17019B   18001.83163844  .00000979  00000-0  47520-4 0  9992
2 42752  51.6409 168.4060 0010137 336.0395  24.0112 15.28464238 31662
LEMUR-2-JENNYBARNA      
1 42753U 17019C   18001.80708059  .00003147  00000-0  12314-3 0  9995
2 42753  51.6383 168.2498 0009782 335.5789  24.4726 15.28837654 31618
LEMUR-2-ROBMOORE        
1 42754U 17019D   18001.84164410  .00001468  00000-0  65043-4 0  9999
2 42754  51.6411 168.4679 0010144 338.3848  21.6702 15.28392670 31645
LEMUR-2-SPIROVISION     
1 42755U 17019E   18001.81989440  .00001957  00000-0  81605-4 0  9990
2 42755  51.6381 168.3256 0009883 339.0884  20.9690 15.28741059 31533
UCLSAT                  
1 42765U 17036A   18001.83263248  .00001484  00000-0  69171-4 0  9992
2 42765  97.4253  64.1902 0010543 303.8125  56.2106 15.21401662 29417
LITUANICASAT-2          
1 42768U 17036D   18001.42814093  .00002418  00000-0  11302-3 0  9990
2 42768  97.4263  63.5184 0014498 291.9642  68.0052 15.20665514 29216
LEMUR-2-SHAINAJOHL      
1 42771U 17036G   18001.81432784  .00001695  00000-0  80422-4 0  9996
2 42771  97.4255  63.9148 0013638 290.1597  69.8171 15.20576123 29218
LEMUR-2-XUENITERENCE    
1 42772U 17036H   18001.61128981  .00001690  00000-0  80093-4 0  9995
2 42772  97.4256  63.7270 0013295 290.7884  69.1927 15.20618098 29184
